[
    {
        "Altitude(m)": 624792.7738208713,
        "Argument of Periapsis(deg)": 0.0,
        "Eccentricity": 0.0,
        "Inclination(deg)": 60.0,
        "Latitude(deg)": -59.147092873536636,
        "Longitude(deg)": -170.97377727489769,
        "Mean Anomaly(deg)": 261.8182,
        "RAAN(deg)": 35.0,
        "Satellite Name": "Test1 170",
        "Satellite Number": 170,
        "Semi-Major Axis(m)": 6980739.136638005,
        "Time(s)": 0
    },
    {
        "Altitude(m)": 624842.1665495073,
        "Argument of Periapsis(deg)": 0.00010418945913296404,
        "Eccentricity": 0.0,
        "Inclination(deg)": 60.0,
        "Latitude(deg)": -59.28917858893796,
        "Longitude(deg)": -169.84427401546122,
        "Mean Anomaly(deg)": 262.43830614546187,
        "RAAN(deg)": 34.99957995086025,
        "Satellite Name": "Test1 170",
        "Satellite Number": 170,
        "Semi-Major Axis(m)": 6980739.136638005,
        "Time(s)": 10
    }
]